{"type":"FeatureCollection","features":[{"type":"Feature","properties":{"highway":"traffic_signals","traffic_signals":"signal"},"geometry":{"type":"Point","coordinates":[-99.1338942,19.4351277]}},{"type":"Feature","properties":{"highway":"traffic_signals","traffic_signals":"signal"},"geometry":{"type":"Point","coordinates":[-99.1380011,19.4357154]}},{"type":"Feature","properties":{"highway":"traffic_signals","traffic_signals":"signal"},"geometry":{"type":"Point","coordinates":[-99.1378821,19.4365585]}},{"type":"Feature","properties":{"highway":"traffic_signals","traffic_signals":"signal"},"geometry":{"type":"Point","coordinates":[-99.1323285,19.4316883]}},{"type":"Feature","properties":{"amenity":"bicycle_rental","brand":"Ecobici","brand:wikidata":"Q5817067","capacity":"33","name":"Ecobici #262 Rep\u00fablica de Cuba - Rep\u00fablica de Brasil","network":"Ecobici","operator":"Gobierno de la Ciudad de M\u00e9xico","ref":"262"},"geometry":{"type":"Point","coordinates":[-99.1340416,19.4368938]}},{"type":"Feature","properties":{"amenity":"restaurant","cuisine":"mexican","name":"La Casa del Pavo"},"geometry":{"type":"Point","coordinates":[-99.137356,19.4326846]}},{"type":"Feature","properties":{"amenity":"bank","brand":"Scotiabank","brand:wikidata":"Q451476","brand:wikipedia":"en:Scotiabank","name":"Scotiabank"},"geometry":{"type":"Point","coordinates":[-99.136194,19.4331215]}},{"type":"Feature","properties":{"bicycle":"yes","highway":"traffic_signals"},"geometry":{"type":"Point","coordinates":[-99.1334192,19.4320086]}},{"type":"Feature","properties":{"amenity":"fast_food","brand":"Burger King","brand:wikidata":"Q177054","brand:wikipedia":"en:Burger King","cuisine":"burger","name":"Burger King","takeaway":"yes","website":"https:\/\/www.burgerking.com.mx"},"geometry":{"type":"Point","coordinates":[-99.1384532,19.4336182]}},{"type":"Feature","properties":{"amenity":"bank","atm":"yes","brand":"BBVA","brand:wikidata":"Q806189","brand:wikipedia":"en:Banco Bilbao Vizcaya Argentaria","name":"BBVA","official_name":"Banco Bilbao Vizcaya Argentaria"},"geometry":{"type":"Point","coordinates":[-99.1352333,19.4339947]}},{"type":"Feature","properties":{"alt_name":"Restaurante Bar La \u00d3pera","amenity":"pub","name":"Cantina La \u00d3pera","source":"Survey","wifi":"no"},"geometry":{"type":"Point","coordinates":[-99.1393309,19.4347251]}},{"type":"Feature","properties":{"addr:city":"Ciudad de M\u00e9xico","addr:housenumber":"52","addr:street":"5 de Mayo","amenity":"restaurant","name":"El Popular","opening_hours":"24\/7","source":"Survey","wifi":"no"},"geometry":{"type":"Point","coordinates":[-99.1352742,19.4342234]}},{"type":"Feature","properties":{"amenity":"restaurant","cuisine":"regional","name":"La Pagoda","opening_hours":"24\/7","source":"Survey","wifi":"no"},"geometry":{"type":"Point","coordinates":[-99.1394688,19.4347486]}},{"type":"Feature","properties":{"alt_name":"El Corona","amenity":"pub","cuisine":"mexican","name":"Sal\u00f3n Corona \"Filomeno Mata\"","source":"Survey","wifi":"no"},"geometry":{"type":"Point","coordinates":[-99.1392955,19.4341765]}},{"type":"Feature","properties":{"highway":"traffic_signals"},"geometry":{"type":"Point","coordinates":[-99.1323961,19.4317037]}},{"type":"Feature","properties":{"access":"customers","amenity":"bicycle_rental","bicycle_parking":"ground_slots","brand":"Ecobici","brand:wikidata":"Q5817067","name":"EcoBici","network":"Ecobici","operator":"Gobierno de la Ciudad de M\u00e9xico"},"geometry":{"type":"Point","coordinates":[-99.1395088,19.4327999]}},{"type":"Feature","properties":{"amenity":"bicycle_rental","brand":"Ecobici","brand:wikidata":"Q5817067","name":"EcoBici","network":"Ecobici","operator":"Gobierno de la Ciudad de M\u00e9xico"},"geometry":{"type":"Point","coordinates":[-99.1398008,19.4364091]}},{"type":"Feature","properties":{"access":"customers","amenity":"bicycle_rental","brand":"Ecobici","brand:wikidata":"Q5817067","capacity":"35","name":"Ecobici #93 Palma Norte - Rep\u00fablica De Cuba","network":"Ecobici","operator":"Gobierno de la Ciudad de M\u00e9xico","ref":"93"},"geometry":{"type":"Point","coordinates":[-99.1347658,19.436803]}},{"type":"Feature","properties":{"amenity":"bicycle_rental","brand":"Ecobici","brand:wikidata":"Q5817067","capacity":"12","name":"Ecobici #89 Rep\u00fablica De Guatemala - Monte de Piedad","network":"Ecobici","operator":"Gobierno de la Ciudad de M\u00e9xico","ref":"89"},"geometry":{"type":"Point","coordinates":[-99.1339583,19.4350315]}},{"type":"Feature","properties":{"amenity":"bicycle_parking","name":"EcoBici","operator":"EcoBici"},"geometry":{"type":"Point","coordinates":[-99.1314907,19.4365181]}},{"type":"Feature","properties":{"amenity":"bicycle_rental","brand":"Ecobici","brand:wikidata":"Q5817067","capacity":"15","name":"Ecobici #88 5 DE Mayo - Palma","network":"Ecobici","operator":"Gobierno de la Ciudad de M\u00e9xico","ref":"88"},"geometry":{"type":"Point","coordinates":[-99.1351983,19.4337909]}},{"type":"Feature","properties":{"amenity":"bicycle_rental","brand":"Ecobici","brand:wikidata":"Q5817067","brand:wikipedia":"es:EcoBici (Ciudad de M\u00e9xico)","capacity":"90","name":"Ecobici #90 Jos\u00e9 Mar\u00eda Pino Su\u00e1rez - Corregidora","network":"Ecobici","operator":"Gobierno de la Ciudad de M\u00e9xico","ref":"90"},"geometry":{"type":"Point","coordinates":[-99.1325739,19.4314979]}},{"type":"Feature","properties":{"addr:street":"Venustiano Carranza","amenity":"atm"},"geometry":{"type":"Point","coordinates":[-99.1360442,19.4313887]}},{"type":"Feature","properties":{"amenity":"restaurant","cuisine":"regional","name":"Los Girasoles","website":"http:\/\/restaurantelosgirasoles.com","wheelchair":"no"},"geometry":{"type":"Point","coordinates":[-99.1389361,19.4360374]}},{"type":"Feature","properties":{"amenity":"restaurant","name":"Taco Inn"},"geometry":{"type":"Point","coordinates":[-99.1389576,19.43594]}},{"type":"Feature","properties":{"addr:city":"Ciudad de M\u00e9xico","addr:housenumber":"10","addr:street":"Isabel la Catolica","amenity":"restaurant","cuisine":"taco","name":"El Cuatro20","source":"survey, website to confirm spelling of name"},"geometry":{"type":"Point","coordinates":[-99.1359636,19.4347509]}},{"type":"Feature","properties":{"highway":"traffic_signals","traffic_signals":"signal"},"geometry":{"type":"Point","coordinates":[-99.136153,19.4342193]}},{"type":"Feature","properties":{"highway":"traffic_signals","traffic_signals":"signal"},"geometry":{"type":"Point","coordinates":[-99.1381891,19.4344845]}},{"type":"Feature","properties":{"amenity":"bureau_de_change","name":"La Casa de la Moneda"},"geometry":{"type":"Point","coordinates":[-99.1384504,19.4367222]}},{"type":"Feature","properties":{"amenity":"restaurant","brand":"Pizza Hut","brand:wikidata":"Q191615","brand:wikipedia":"en:Pizza Hut","cuisine":"pizza","name":"Pizza Hut"},"geometry":{"type":"Point","coordinates":[-99.1353394,19.4338158]}},{"type":"Feature","properties":{"amenity":"cafe","brand":"Starbucks","brand:wikidata":"Q37158","brand:wikipedia":"en:Starbucks","cuisine":"coffee_shop","name":"Starbucks","official_name":"Starbucks Coffee","takeaway":"yes"},"geometry":{"type":"Point","coordinates":[-99.136783,19.4336348]}},{"type":"Feature","properties":{"amenity":"cafe","brand":"Starbucks","brand:wikidata":"Q37158","brand:wikipedia":"en:Starbucks","cuisine":"coffee_shop","name":"Starbucks","official_name":"Starbucks Coffee","takeaway":"yes"},"geometry":{"type":"Point","coordinates":[-99.138514,19.4336642]}},{"type":"Feature","properties":{"amenity":"restaurant","cuisine":"argentinian;italian","name":"Argentalia"},"geometry":{"type":"Point","coordinates":[-99.1397109,19.4327043]}},{"type":"Feature","properties":{"amenity":"fast_food","name":"Pirates Burgers"},"geometry":{"type":"Point","coordinates":[-99.1367703,19.4321474]}},{"type":"Feature","properties":{"amenity":"fast_food","name":"Pirates Burgers"},"geometry":{"type":"Point","coordinates":[-99.1382103,19.4323557]}},{"type":"Feature","properties":{"amenity":"fast_food","name":"Casa Churra"},"geometry":{"type":"Point","coordinates":[-99.1391907,19.4326801]}},{"type":"Feature","properties":{"amenity":"fast_food","name":"Don Maderito"},"geometry":{"type":"Point","coordinates":[-99.138247,19.4336143]}},{"type":"Feature","properties":{"amenity":"post_office","brand":"DHL","brand:wikidata":"Q489815","brand:wikipedia":"en:DHL","name":"DHL","operator":"DHL","operator:type":"private","operator:wikidata":"Q489815","operator:wikipedia":"en:DHL"},"geometry":{"type":"Point","coordinates":[-99.1348861,19.4333451]}},{"type":"Feature","properties":{"amenity":"cafe","brand":"Starbucks","brand:wikidata":"Q37158","brand:wikipedia":"en:Starbucks","cuisine":"coffee_shop","name":"Starbucks","official_name":"Starbucks Coffee","takeaway":"yes"},"geometry":{"type":"Point","coordinates":[-99.1349765,19.4319154]}},{"type":"Feature","properties":{"amenity":"atm"},"geometry":{"type":"Point","coordinates":[-99.1360529,19.4320755]}},{"type":"Feature","properties":{"amenity":"atm","brand":"Banorte","brand:wikidata":"Q806914","name":"Banorte","operator":"Banorte","operator:wikidata":"Q806914"},"geometry":{"type":"Point","coordinates":[-99.1369564,19.4321749]}},{"type":"Feature","properties":{"amenity":"restaurant","name":"Sal\u00f3n Corona"},"geometry":{"type":"Point","coordinates":[-99.1374687,19.4322458]}},{"type":"Feature","properties":{"amenity":"bicycle_parking","covered":"no"},"geometry":{"type":"Point","coordinates":[-99.1344921,19.4319909]}},{"type":"Feature","properties":{"addr:postcode":"06000","amenity":"restaurant","contact:facebook":"restaurantevegetarianomotolinia","diet:vegetarian":"only","name":"Restaurante Vegetariano Motolinia","opening_hours":"Mo-Su 12:00-18:00"},"geometry":{"type":"Point","coordinates":[-99.137451,19.4330489]}},{"type":"Feature","properties":{"amenity":"restaurant","name":"Pasag\u00fcero"},"geometry":{"type":"Point","coordinates":[-99.1374764,19.4329158]}},{"type":"Feature","properties":{"amenity":"restaurant","name":"La Isla del drag\u00f3n"},"geometry":{"type":"Point","coordinates":[-99.1372938,19.4329286]}},{"type":"Feature","properties":{"amenity":"restaurant","name":"Los Chilangos"},"geometry":{"type":"Point","coordinates":[-99.1372869,19.4339712]}},{"type":"Feature","properties":{"amenity":"restaurant","cuisine":"argentinian","name":"Cantina Buenos Aires"},"geometry":{"type":"Point","coordinates":[-99.1372698,19.4341849]}},{"type":"Feature","properties":{"amenity":"restaurant","name":"La Petite Cr\u00e9pe"},"geometry":{"type":"Point","coordinates":[-99.136122,19.434878]}},{"type":"Feature","properties":{"amenity":"restaurant","cuisine":"mexican","name":"El 9 de Isabel"},"geometry":{"type":"Point","coordinates":[-99.1362427,19.4348377]}},{"type":"Feature","properties":{"amenity":"bar","name":"R\u00edo de la Plata","opening_hours":"Mo-Su 08:00-18:00; Apr 10-15,Aug,Dec 25: off; Jun: 08:00-14:00","operator":"R\u00edo de la Plata","smoking":"no","wheelchair":"no"},"geometry":{"type":"Point","coordinates":[-99.1376782,19.4372791]}},{"type":"Feature","properties":{"addr:city":"Ciudad de M\u00e9xico","addr:housenumber":"15","addr:postcode":"06020","addr:street":"Calle Rep\u00fablica de Argentina","amenity":"restaurant","level":"2","name":"El Mayor","opening_hours":"Mo-Sa 9:00-18:30; Su 10:00-18:30","phone":"5704 7580","website":"http:\/\/www.elmayor.com.mx\/"},"geometry":{"type":"Point","coordinates":[-99.1315463,19.4361909]}},{"type":"Feature","properties":{"amenity":"fast_food","brand":"Subway","brand:wikidata":"Q244457","brand:wikipedia":"en:Subway (restaurant)","cuisine":"sandwich","name":"Subway","takeaway":"yes"},"geometry":{"type":"Point","coordinates":[-99.1350318,19.4320631]}},{"type":"Feature","properties":{"addr:city":"Ciudad de M\u00e9xico","addr:housenumber":"58","addr:street":"Calle Donceles","amenity":"bar","name":"UTA","opening_hours":"21:00-03:00","smoking":"isolated"},"geometry":{"type":"Point","coordinates":[-99.1355556,19.4363153]}},{"type":"Feature","properties":{"addr:city":"Ciudad de M\u00e9xico","addr:housenumber":"56","addr:street":"Calle Donceles","amenity":"restaurant","cuisine":"pizza","name":"UTA Pizzer\u00eda","opening_hours":"15:00-21:00"},"geometry":{"type":"Point","coordinates":[-99.1356764,19.4363457]}},{"type":"Feature","properties":{"addr:city":"Centro","addr:housenumber":"28","addr:street":"Calle Tacuba","amenity":"cafe","cuisine":"regional","internet_access":"no","name":"Caf\u00e9 de Tacuba","opening_hours":"08:00-23:30","phone":"+52 55 55212048"},"geometry":{"type":"Point","coordinates":[-99.1376076,19.4357184]}},{"type":"Feature","properties":{"amenity":"toilets"},"geometry":{"type":"Point","coordinates":[-99.1302577,19.4348766]}},{"type":"Feature","properties":{"crossing":"marked","highway":"crossing"},"geometry":{"type":"Point","coordinates":[-99.1342083,19.4321485]}},{"type":"Feature","properties":{"crossing":"traffic_signals","highway":"crossing"},"geometry":{"type":"Point","coordinates":[-99.1338745,19.4336484]}},{"type":"Feature","properties":{"highway":"traffic_signals","traffic_signals":"signal"},"geometry":{"type":"Point","coordinates":[-99.134021,19.4339649]}},{"type":"Feature","properties":{"highway":"traffic_signals"},"geometry":{"type":"Point","coordinates":[-99.1323991,19.4318672]}},{"type":"Feature","properties":{"addr:city":"Ciudad de M\u00e9xico","addr:housenumber":"32","addr:postcode":"06000","addr:street":"Palma","amenity":"restaurant","cuisine":"mexican","name":"El Rey del Pavo","opening_hours":"Mo-Sa 11:00-18:45","phone":"55182810","website":"https:\/\/elreydelpavo.com.mx\/"},"geometry":{"type":"Point","coordinates":[-99.1352045,19.4325815]}},{"type":"Feature","properties":{"addr:housenumber":"71","addr:street":"Francisco I. Madero","amenity":"cafe","cuisine":"ice_cream","name":"Helados Santa Clara","operator":"Santa Clara","phone":"5521 2581"},"geometry":{"type":"Point","coordinates":[-99.1374793,19.4335422]}},{"type":"Feature","properties":{"addr:city":"Ciudad de M\u00e9xico","addr:housenumber":"60","addr:street":"16 de Septiembre","amenity":"cafe","cuisine":"ice_cream","name":"Helados Santa Clara","operator":"Santa Clara"},"geometry":{"type":"Point","coordinates":[-99.1370059,19.4321776]}},{"type":"Feature","properties":{"amenity":"restaurant","brand":"Vips","brand:wikidata":"Q48783378","brand:wikipedia":"es:Vips","cuisine":"mexican","name":"Vips"},"geometry":{"type":"Point","coordinates":[-99.1365647,19.4334147]}},{"type":"Feature","properties":{"amenity":"restaurant","brand":"Vips","brand:wikidata":"Q48783378","brand:wikipedia":"es:Vips","cuisine":"mexican","name":"Vips"},"geometry":{"type":"Point","coordinates":[-99.1358757,19.4334977]}},{"type":"Feature","properties":{"crossing":"traffic_signals","highway":"crossing"},"geometry":{"type":"Point","coordinates":[-99.1335359,19.432037]}},{"type":"Feature","properties":{"crossing":"marked","highway":"crossing"},"geometry":{"type":"Point","coordinates":[-99.1323102,19.432599]}},{"type":"Feature","properties":{"addr:city":"Ciudad de M\u00e9xico","addr:housenumber":"50","addr:street":"San Ildefonso","amenity":"restaurant","cuisine":"mexican","name":"San Francisco","opening_hours":"Mo-Su 09:00-18:00"},"geometry":{"type":"Point","coordinates":[-99.1306383,19.4365257]}},{"type":"Feature","properties":{"amenity":"fast_food","name":"Tacos de Canasta Los Especiales","name:es":"Tacos de Canasta Los Especiales"},"geometry":{"type":"Point","coordinates":[-99.1344525,19.4330736]}},{"type":"Feature","properties":{"addr:city":"Ciudad de M\u00e9xico","addr:housenumber":"10","addr:street":"5 de Mayo","amenity":"restaurant","name":"Restaurante 5M","name:es":"Restaurante 5M"},"geometry":{"type":"Point","coordinates":[-99.1399749,19.4348006]}},{"type":"Feature","properties":{"amenity":"restaurant","name":"Taquelia","name:es":"Taquelia"},"geometry":{"type":"Point","coordinates":[-99.1317094,19.4364423]}},{"type":"Feature","properties":{"amenity":"bicycle_parking","bicycle_parking":"staple","capacity":"3"},"geometry":{"type":"Point","coordinates":[-99.133741,19.4349776]}},{"type":"Feature","properties":{"amenity":"restaurant","name":"Azul Historico","name:es":"azul historico"},"geometry":{"type":"Point","coordinates":[-99.136196,19.4328886]}},{"type":"Feature","properties":{"addr:city":"Ciudad de M\u00e9xico","addr:housenumber":"32","addr:postcode":"57210","addr:street":"Calle Ignacio Allende","amenity":"bar","cuisine":"regional","internet_access":"wlan","name":"Los Jarritos","name:es":"Los Jarritos","opening_hours":"Tu-Sa 12:00-02:00"},"geometry":{"type":"Point","coordinates":[-99.1379254,19.4367668]}},{"type":"Feature","properties":{"addr:city":"Ciudad de M\u00e9xico","addr:housenumber":"5","addr:postcode":"06000","addr:street":"Calle 5 de Mayo","amenity":"restaurant","cuisine":"mexican","name":"Arandas Taquer\u00eda","name:es":"Taqueria Arandas","payment:debit_cards":"yes"},"geometry":{"type":"Point","coordinates":[-99.1357777,19.4343005]}},{"type":"Feature","properties":{"crossing":"traffic_signals","highway":"crossing"},"geometry":{"type":"Point","coordinates":[-99.1340567,19.4335921]}},{"type":"Feature","properties":{"addr:city":"Ciudad de M\u00e9xico","addr:housenumber":"23","addr:street":"Palma","amenity":"restaurant","cuisine":"mexican","leaf_type":"broadleaved","name":"El Cardenal","natural":"tree","phone":"+52 55 5521 3080","smoking":"no","website":"https:\/\/www.restauranteelcardenal.com\/","wheelchair":"yes"},"geometry":{"type":"Point","coordinates":[-99.1352776,19.4336275]}},{"type":"Feature","properties":{"amenity":"kindergarten"},"geometry":{"type":"Point","coordinates":[-99.1297439,19.4355199]}},{"type":"Feature","properties":{"amenity":"police"},"geometry":{"type":"Point","coordinates":[-99.1314879,19.4364751]}},{"type":"Feature","properties":{"amenity":"cafe"},"geometry":{"type":"Point","coordinates":[-99.1345777,19.4331227]}},{"type":"Feature","properties":{"addr:housenumber":"39","addr:street":"Francisco I. Madero","amenity":"fast_food","brand":"McDonald's","brand:wikidata":"Q38076","brand:wikipedia":"en:McDonald's","cuisine":"burger","internet_access":"wlan","name":"McDonald's","takeaway":"yes"},"geometry":{"type":"Point","coordinates":[-99.1372063,19.433496]}},{"type":"Feature","properties":{"amenity":"restaurant","name":"Canela y Oro","name:es":"Canela y Oro"},"geometry":{"type":"Point","coordinates":[-99.1343161,19.4352794]}},{"type":"Feature","properties":{"addr:housenumber":"74A","addr:street":"Calle Tacuba","amenity":"fast_food","brand":"Domino's","brand:wikidata":"Q839466","cuisine":"pizza","name":"Domino's","name:es":"Domino's Pizza","takeaway":"yes"},"geometry":{"type":"Point","coordinates":[-99.135377,19.4354315]}},{"type":"Feature","properties":{"amenity":"bicycle_parking","operator":"Bici estacionamiento CDMX"},"geometry":{"type":"Point","coordinates":[-99.1334331,19.4320552]}},{"type":"Feature","properties":{"addr:housenumber":"6","addr:street":"Isabel la Catolica","amenity":"fast_food","name":"Taqueria Tlaquepaque","name:es":"Taqueria Tlaquepaque"},"geometry":{"type":"Point","coordinates":[-99.1363094,19.4340941]}},{"type":"Feature","properties":{"addr:city":"Ciudad de M\u00e9xico","addr:housenumber":"10D","addr:street":"5 de Mayo","amenity":"restaurant","name":"Los Callejeros"},"geometry":{"type":"Point","coordinates":[-99.139597,19.4347617]}},{"type":"Feature","properties":{"amenity":"cafe","name":"Cafe R\u00edo"},"geometry":{"type":"Point","coordinates":[-99.1333273,19.4354837]}},{"type":"Feature","properties":{"amenity":"restaurant","name":"Salon Corona","name:es":"Salon Corona"},"geometry":{"type":"Point","coordinates":[-99.1396769,19.4338866]}},{"type":"Feature","properties":{"amenity":"bicycle_rental","brand":"Ecobici","brand:wikidata":"Q5817067","capacity":"18","name":"Ecobici #65 Marconi - Tacuba","network":"Ecobici","operator":"Gobierno de la Ciudad de M\u00e9xico","ref":"65"},"geometry":{"type":"Point","coordinates":[-99.1398807,19.4361442]}},{"type":"Feature","properties":{"amenity":"bicycle_rental","brand":"Ecobici","brand:wikidata":"Q5817067","capacity":"14","name":"Ecobici #55 5 De Mayo - Bolivar","network":"Ecobici","operator":"Gobierno de la Ciudad de M\u00e9xico","ref":"55"},"geometry":{"type":"Point","coordinates":[-99.1380408,19.4343912]}},{"type":"Feature","properties":{"amenity":"bicycle_rental","brand":"Ecobici","brand:wikidata":"Q5817067","capacity":"16","name":"Ecobici #94 Lic. Verdad - Moneda","network":"Ecobici","operator":"Gobierno de la Ciudad de M\u00e9xico","ref":"94"},"geometry":{"type":"Point","coordinates":[-99.1309664,19.4338444]}},{"type":"Feature","properties":{"highway":"traffic_signals","traffic_signals":"signal"},"geometry":{"type":"Point","coordinates":[-99.1340615,19.4322323]}},{"type":"Feature","properties":{"crossing":"traffic_signals","highway":"crossing"},"geometry":{"type":"Point","coordinates":[-99.1340383,19.4321889]}},{"type":"Feature","properties":{"crossing":"traffic_signals","highway":"crossing"},"geometry":{"type":"Point","coordinates":[-99.1340433,19.433153]}},{"type":"Feature","properties":{"crossing":"traffic_signals","highway":"crossing"},"geometry":{"type":"Point","coordinates":[-99.1338392,19.4333543]}},{"type":"Feature","properties":{"crossing":"marked","highway":"crossing"},"geometry":{"type":"Point","coordinates":[-99.1324374,19.4332819]}},{"type":"Feature","properties":{"highway":"traffic_signals","traffic_signals":"signal"},"geometry":{"type":"Point","coordinates":[-99.133777,19.4333711]}},{"type":"Feature","properties":{"crossing":"traffic_signals","crossing_ref":"zebra","highway":"crossing"},"geometry":{"type":"Point","coordinates":[-99.1325454,19.4318823]}},{"type":"Feature","properties":{"addr:housenumber":"2","addr:street":"Calle Ignacio Allende","amenity":"pub","name":"Terraza Tacuba Brewery"},"geometry":{"type":"Point","coordinates":[-99.1381014,19.4358238]}},{"type":"Feature","properties":{"alt_name":"Dunkin' Donuts","amenity":"fast_food","brand":"Dunkin'","brand:wikidata":"Q847743","cuisine":"donut;coffee_shop","name":"Dunkin'","takeaway":"yes"},"geometry":{"type":"Point","coordinates":[-99.1399516,19.4340697]}},{"type":"Feature","properties":{"amenity":"cafe","brand":"Starbucks","brand:wikidata":"Q37158","brand:wikipedia":"en:Starbucks","cuisine":"coffee_shop","name":"Starbucks","official_name":"Starbucks Coffee","takeaway":"yes"},"geometry":{"type":"Point","coordinates":[-99.1389042,19.4344201]}},{"type":"Feature","properties":{"amenity":"school","name":"Escuela Secundaria Diurna No.6 Carlota Jaso"},"geometry":{"type":"Point","coordinates":[-99.1299452,19.4364644]}},{"type":"Feature","properties":{"amenity":"fast_food","name":"Tortas El Jefe"},"geometry":{"type":"Point","coordinates":[-99.135135,19.4346036]}},{"type":"Feature","properties":{"amenity":"bar","name":"La Gioconda"},"geometry":{"type":"Point","coordinates":[-99.1392823,19.4342783]}},{"type":"Feature","properties":{"amenity":"restaurant","name":"Sushi Roll"},"geometry":{"type":"Point","coordinates":[-99.1392254,19.4344219]}},{"type":"Feature","properties":{"amenity":"bar","name":"Nonsolo","opening_hours":"Mo-Su 09:00-22:00"},"geometry":{"type":"Point","coordinates":[-99.137483,19.4327968]}},{"type":"Feature","properties":{"addr:housenumber":"57","addr:street":"Francisco I. Madero","amenity":"bar","name":"Hilaria Gastrobar","phone":"5555121559"},"geometry":{"type":"Point","coordinates":[-99.1356127,19.4332544]}},{"type":"Feature","properties":{"amenity":"bank","brand":"Banorte","brand:wikidata":"Q806914","brand:wikipedia":"en:Banorte","name":"Banorte"},"geometry":{"type":"Point","coordinates":[-99.139859,19.4345535]}},{"type":"Feature","properties":{"amenity":"restaurant","cuisine":"indian","diet:vegetarian":"yes","name":"India Town"},"geometry":{"type":"Point","coordinates":[-99.1348321,19.4318972]}},{"type":"Feature","properties":{"addr:city":"Ciudad de M\u00e9xico","addr:housenumber":"49","addr:postcode":"06000","addr:street":"5 de Mayo","amenity":"bar","name":"Pata Negra"},"geometry":{"type":"Point","coordinates":[-99.1355046,19.4340038]}},{"type":"Feature","properties":{"amenity":"fast_food","name":"Torteria Tlaquepaque"},"geometry":{"type":"Point","coordinates":[-99.1314726,19.4366192]}},{"type":"Feature","properties":{"amenity":"fast_food","cuisine":"mexican"},"geometry":{"type":"Point","coordinates":[-99.1315145,19.436674]}},{"type":"Feature","properties":{"amenity":"pub","name":"Cantina Salon Espa\u00f1a"},"geometry":{"type":"Point","coordinates":[-99.1315107,19.4366304]}},{"type":"Feature","properties":{"amenity":"toilets","fee":"yes","name":"Sanitarios P\u00fablicos"},"geometry":{"type":"Point","coordinates":[-99.1298509,19.4362245]}},{"type":"Feature","properties":{"amenity":"bank","atm":"yes","brand":"HSBC","brand:wikidata":"Q190464","brand:wikipedia":"en:HSBC","name":"HSBC"},"geometry":{"type":"Point","coordinates":[-99.1341695,19.4359079]}},{"type":"Feature","properties":{"amenity":"bank","brand":"Santander","brand:wikidata":"Q5835668","brand:wikipedia":"en:Santander Bank","name":"Santander"},"geometry":{"type":"Point","coordinates":[-99.1345905,19.4370507]}},{"type":"Feature","properties":{"amenity":"cinema","name":"Cine R\u00edo","wikidata":"Q36333539"},"geometry":{"type":"Point","coordinates":[-99.1349462,19.4369014]}},{"type":"Feature","properties":{"amenity":"bureau_de_change","name":"Casa de cambio","name:en":"Change","name:es":"CI Banco","name:fr":"Change"},"geometry":{"type":"Point","coordinates":[-99.1381706,19.4336808]}},{"type":"Feature","properties":{"amenity":"restaurant","name":"Ichiban Sushi House","name:en":"Ichiban Sushi House"},"geometry":{"type":"Point","coordinates":[-99.1397051,19.4347711]}},{"type":"Feature","properties":{"addr:city":"Ciudad de M\u00e9xico","addr:housenumber":"39","addr:postcode":"06000","addr:street":"Venustiano Carranza","amenity":"bank","atm":"yes","brand":"Banorte","brand:wikidata":"Q806914","brand:wikipedia":"en:Banorte","name":"Banorte","opening_hours":"Mo-Fr 08:30-16:00","operator":"Grupo Financiero Banorte"},"geometry":{"type":"Point","coordinates":[-99.1382692,19.4314402]}},{"type":"Feature","properties":{"amenity":"bank","atm":"yes","brand":"BBVA","brand:wikidata":"Q806189","brand:wikipedia":"en:Banco Bilbao Vizcaya Argentaria","name":"BBVA","official_name":"Banco Bilbao Vizcaya Argentaria"},"geometry":{"type":"Point","coordinates":[-99.1382988,19.4318059]}},{"type":"Feature","properties":{"amenity":"restaurant","name":"Donde To\u00f1o comida mexicana","note":"Good taste and price"},"geometry":{"type":"Point","coordinates":[-99.1388821,19.4339642]}},{"type":"Feature","properties":{"amenity":"toilets"},"geometry":{"type":"Point","coordinates":[-99.1320613,19.4346917]}},{"type":"Feature","properties":{"amenity":"restaurant","name":"Primer Cuadro"},"geometry":{"type":"Point","coordinates":[-99.1342268,19.432383]}},{"type":"Feature","properties":{"amenity":"restaurant","name":"Jam\u00f3n J. Jam\u00f3n"},"geometry":{"type":"Point","coordinates":[-99.1330163,19.4353113]}},{"type":"Feature","properties":{"amenity":"fast_food","brand":"McDonald's","brand:wikidata":"Q38076","brand:wikipedia":"en:McDonald's","cuisine":"burger","name":"McDonald's","takeaway":"yes"},"geometry":{"type":"Point","coordinates":[-99.1342809,19.4337221]}},{"type":"Feature","properties":{"amenity":"parking"},"geometry":{"type":"Point","coordinates":[-99.1364183,19.4319662]}},{"type":"Feature","properties":{"amenity":"bureau_de_change"},"geometry":{"type":"Point","coordinates":[-99.1378723,19.431476]}},{"type":"Feature","properties":{"amenity":"bureau_de_change"},"geometry":{"type":"Point","coordinates":[-99.1366105,19.4319335]}},{"type":"Feature","properties":{"amenity":"bar","cuisine":"mexican","name":"Gante"},"geometry":{"type":"Point","coordinates":[-99.1394745,19.4331199]}},{"type":"Feature","properties":{"amenity":"restaurant","name":"La Torta Brava"},"geometry":{"type":"Point","coordinates":[-99.1343417,19.4338922]}},{"type":"Feature","properties":{"amenity":"restaurant","name":"Terraza Don Batiz"},"geometry":{"type":"Point","coordinates":[-99.1386512,19.4337061]}},{"type":"Feature","properties":{"amenity":"restaurant","name":"Gffjv"},"geometry":{"type":"Point","coordinates":[-99.1388701,19.4336882]}},{"type":"Feature","properties":{"addr:housenumber":"16","addr:street":"Calle Isabel la Cat\u00f3lica","amenity":"fast_food","name":"Taquer\u00eda Tlaquepaque"},"geometry":{"type":"Point","coordinates":[-99.1360091,19.4345388]}},{"type":"Feature","properties":{"amenity":"bar","name":"El Balc\u00f3n del Z\u00f3calo","name:en":"El Balcon del Zocalo"},"geometry":{"type":"Point","coordinates":[-99.1342446,19.4338636]}},{"type":"Feature","properties":{"addr:street":"Calle Tacuba","amenity":"cafe","cuisine":"sandwich;french;coffee_shop","email":"eventos@maison-kayser.com.mx","internet_access":"wlan","name":"Maison Kayser","phone":"(55) 54314282"},"geometry":{"type":"Point","coordinates":[-99.1389622,19.4359083]}},{"type":"Feature","properties":{"amenity":"restaurant","name":"casa de las sirenas"},"geometry":{"type":"Point","coordinates":[-99.1324297,19.4350186]}},{"type":"Feature","properties":{"amenity":"restaurant","name":"limosneros"},"geometry":{"type":"Point","coordinates":[-99.1380616,19.4359507]}},{"type":"Feature","properties":{"amenity":"cafe","name":"Domingo Santo Caf\u00e9"},"geometry":{"type":"Point","coordinates":[-99.1340879,19.4370194]}},{"type":"Feature","properties":{"amenity":"bar","name":"Cocina central 1812"},"geometry":{"type":"Point","coordinates":[-99.1344078,19.4323899]}},{"type":"Feature","properties":{"amenity":"drinking_water","fee":"no","wheelchair":"yes"},"geometry":{"type":"Point","coordinates":[-99.1337323,19.4319694]}},{"type":"Feature","properties":{"amenity":"restaurant","diet:vegetarian":"only","name":"Los Vegetarianos","opening_hours":"Mo-Su 08:00-20:00"},"geometry":{"type":"Point","coordinates":[-99.1356727,19.4335249]}},{"type":"Feature","properties":{"addr:city":"Ciudad de M\u00e9xico","addr:housenumber":"64","addr:postcode":"06000","addr:street":"Calle Donceles","amenity":"restaurant","cuisine":"pizza","name":"Pizza del Perro Negro","opening_hours":"Mo-Su 14:00-22:00","phone":"+52 55 535 17401","website":"https:\/\/www.muertealapizzafalsa.com\/"},"geometry":{"type":"Point","coordinates":[-99.1352366,19.4363013]}},{"type":"Feature","properties":{"amenity":"charging_station","motorcar":"no","operator":"Servicio de Transportes El\u00e9ctricos de la Ciudad de M\u00e9xico","socket:type1":"yes"},"geometry":{"type":"Point","coordinates":[-99.1337183,19.4350497]}},{"type":"Feature","properties":{"amenity":"charging_station","motorcar":"no","operator":"Servicio de Transportes El\u00e9ctricos de la Ciudad de M\u00e9xico","socket:type1":"yes"},"geometry":{"type":"Point","coordinates":[-99.1335668,19.4350315]}},{"type":"Feature","properties":{"amenity":"table","level":"0"},"geometry":{"type":"Point","coordinates":[-99.1324242,19.4340792]}},{"type":"Feature","properties":{"amenity":"charging_station","level":"1","motorcar":"no","operator":"Servicio de Transportes El\u00e9ctricos de la Ciudad de M\u00e9xico","socket:type1":"yes"},"geometry":{"type":"Point","coordinates":[-99.1335668,19.4350315]}},{"type":"Feature","properties":{"amenity":"fast_food","name":"Comida callejera mexicana","name:en":"Mexican Street Food"},"geometry":{"type":"Point","coordinates":[-99.1334659,19.4367504]}},{"type":"Feature","properties":{"amenity":"bar","name":"Zinco Jazz Club"},"geometry":{"type":"Point","coordinates":[-99.1371396,19.4338751]}},{"type":"Feature","properties":{"amenity":"ice_cream","name":"Nieves 100% artesanales"},"geometry":{"type":"Point","coordinates":[-99.136573,19.434101]}},{"type":"Feature","properties":{"addr:housenumber":"81","addr:postcode":"06000","addr:street":"16 de Septiembre","amenity":"restaurant","brand":"Vips","brand:wikidata":"Q48783378","brand:wikipedia":"es:Vips","cuisine":"mexican","name":"Vips","opening_hours":"Mo-Su 08:00-20:00"},"geometry":{"type":"Point","coordinates":[-99.1347231,19.4318795]}},{"type":"Feature","properties":{"addr:housenumber":"349","addr:postcode":"06000","addr:street":"Calle Palma","alt_name":"Kentucky Fried Chicken","amenity":"fast_food","brand":"KFC","brand:wikidata":"Q524757","cuisine":"chicken","name":"KFC","opening_hours":"Mo-Su 10:00-22:00","takeaway":"yes"},"geometry":{"type":"Point","coordinates":[-99.135374,19.4328134]}},{"type":"Feature","properties":{"amenity":"restaurant","brand":"Vips","brand:wikidata":"Q48783378","brand:wikipedia":"es:Vips","cuisine":"mexican","name":"Vips"},"geometry":{"type":"Point","coordinates":[-99.1377996,19.433758]}},{"type":"Feature","properties":{"addr:street":"Calle Palma","amenity":"restaurant","cuisine":"mexican","name":"La P","name:en":"La Parroquia de Veracruz","name:es":"La Parroquia de Veracruz","opening_hours":"Mo-Fr 07:00-22:00; Sa 08:00-23:00; Su 08:00-22:00"},"geometry":{"type":"Point","coordinates":[-99.135397,19.4313457]}},{"type":"Feature","properties":{"amenity":"fast_food","name":"Quesadillas"},"geometry":{"type":"Point","coordinates":[-99.1338106,19.4367423]}},{"type":"Feature","properties":{"amenity":"restaurant","name":"El Mayor"},"geometry":{"type":"Point","coordinates":[-99.1314871,19.4357445]}},{"type":"Feature","properties":{"amenity":"restaurant","name":"el mayor"},"geometry":{"type":"Point","coordinates":[-99.131584,19.4358341]}},{"type":"Feature","properties":{"amenity":"courthouse","name":"Palacio Nacional"},"geometry":{"type":"Point","coordinates":[-99.131901,19.4324794]}},{"type":"Feature","properties":{"amenity":"bank","brand":"HSBC","brand:wikidata":"Q190464","brand:wikipedia":"en:HSBC","name":"HSBC"},"geometry":{"type":"Point","coordinates":[-99.1384387,19.4346078]}},{"type":"Feature","properties":{"amenity":"toilets"},"geometry":{"type":"Point","coordinates":[-99.1346095,19.4331244]}},{"type":"Feature","properties":{"amenity":"fast_food","brand":"McDonald's","brand:wikidata":"Q38076","cuisine":"burger","name":"McDonald's","takeaway":"yes"},"geometry":{"type":"Point","coordinates":[-99.1348214,19.4353314]}},{"type":"Feature","properties":{"amenity":"bar","name":"ProCer"},"geometry":{"type":"Point","coordinates":[-99.1397534,19.4365085]}},{"type":"Feature","properties":{"amenity":"restaurant","cuisine":"juice","name":"Jugos Mar\u00eda Cristina"},"geometry":{"type":"Point","coordinates":[-99.1377133,19.4314272]}},{"type":"Feature","properties":{"amenity":"restaurant","name":"Taquer\u00eda tlaquepaque"},"geometry":{"type":"Point","coordinates":[-99.1378352,19.4344864]}},{"type":"Feature","properties":{"amenity":"restaurant","name":"Caf\u00e9 La blanca"},"geometry":{"type":"Point","coordinates":[-99.136541,19.434264]}},{"type":"Feature","properties":{"amenity":"restaurant","internet_access":"wlan","name":"La Capilla"},"geometry":{"type":"Point","coordinates":[-99.1363652,19.4343248]}},{"type":"Feature","properties":{"amenity":"restaurant","cuisine":"mexican","name":"Azul hist\u00f3rico"},"geometry":{"type":"Point","coordinates":[-99.1362361,19.4328471]}}]}